1 00005U 58002B   12337.63652026  .00000387  00000-0  48131-3 0
2 00005 034.2385 068.5212 1845408 204.5849 145.4504 10.84165236906338